ONEWEB-0403             
1 50483U 21132Q   25028.38635875  .00000080  00000+0  17080-3 0  9997
2 50483  87.9063  75.8680 0001859  94.5871 265.5474 13.18685419155062
ONEWEB-0405             
1 50485U 21132S   25028.55391868  .00000103  00000+0  22958-3 0  9995
2 50485  87.9064  75.8245 0001538 102.1673 257.9632 13.18684788155487
ONEWEB-0406             
1 50486U 21132T   25028.39108457  .00000092  00000+0  20033-3 0  9997
2 50486  87.9067  75.8738 0002219  83.3666 276.7719 13.18685270155096
ONEWEB-0407             
1 50487U 21132U   25028.38477583  .00000074  00000+0  15442-3 0  9994
2 50487  87.9063  75.8663 0001675  98.9442 261.1880 13.18685099155039
ONEWEB-0412             
1 50489U 21132W   25028.37370807  .00000087  00000+0  18821-3 0  9994
2 50489  87.9068  75.8790 0001525 107.7838 252.3461 13.18685033156406
ONEWEB-0413             
1 50490U 21132X   25028.37844973  .00000098  00000+0  21461-3 0  9992
2 50490  87.9067  75.8901 0001668 108.5226 251.6087 13.18684953156359
